{"type":"FeatureCollection","features":[{"type":"Feature","properties":{"name":"Andaman and Nicobar Islands"},"geometry":{"type":"MultiPolygon","coordinates":[[[[93.64,7.12],[93.67,7.19],[93.83,7.24],[93.86,7.20],[93.91,6.94],[93.87,6.79],[93.80,6.76],[93.71,6.99],[93.66,7.02],[93.64,7.12]]],[[[93.71,7.31],[93.63,7.24],[93.60,7.31],[93.70,7.44],[93.74,7.37],[93.71,7.31]]],[[[92.72,9.21],[92.79,9.23],[92.82,9.14],[92.72,9.12],[92.72,9.21]]],[[[92.58,10.78],[92.59,10.68],[92.53,10.52],[92.43,10.55],[92.37,10.78],[92.52,10.89],[92.58,10.78]]],[[[92.58,11.40],[92.63,11.51],[92.68,11.37],[92.59,11.34],[92.58,11.40]]],[[[92.66,11.65],[92.75,11.60],[92.66,11.50],[92.55,11.71],[92.53,11.91],[92.60,11.84],[92.66,12.21],[92.75,12.17],[92.73,12.08],[92.78,12.04],[92.70,11.97],[92.79,11.88],[92.75,11.70],[92.66,11.65]]],[[[92.85,12.15],[92.76,12.18],[92.74,12.24],[92.81,12.31],[92.83,12.30],[92.87,12.30],[92.85,12.15]]],[[[92.72,12.83],[92.79,12.86],[92.78,13.02],[92.82,13.11],[92.84,13.39],[92.87,13.47],[92.93,13.49],[92.98,13.57],[93.04,13.52],[93.03,13.34],[93.06,13.27],[93.03,13.08],[92.95,13.01],[92.91,13.05],[92.85,12.90],[92.92,12.88],[92.96,12.73],[92.97,12.54],[92.87,12.33],[92.71,12.29],[92.69,12.32],[92.74,12.72],[92.72,12.83]]]]}},{"type":"Feature","properties":{"name":"Andhra Pradesh"},"geometry":{"type":"Polygon","coordinates":[[[79.16,13.02],[78.89,13.09],[78.75,13.05],[78.62,12.99],[78.59,12.78],[78.41,12.62],[78.30,12.66],[78.23,12.76],[78.25,12.86],[78.31,12.85],[78.35,12.94],[78.46,12.97],[78.58,13.27],[78.44,13.30],[78.36,13.36],[78.40,13.58],[78.19,13.56],[78.20,13.62],[78.12,13.71],[78.11,13.86],[78.00,13.87],[77.96,13.95],[77.81,13.91],[77.78,13.81],[77.45,13.68],[77.46,13.75],[77.43,13.84],[77.32,13.83],[77.18,13.86],[77.15,13.80],[77.06,13.74],[76.97,13.82],[77.04,13.93],[76.93,14.03],[76.94,14.09],[76.89,14.16],[77.00,14.19],[77.02,14.06],[77.17,14.01],[77.32,14.03],[77.39,13.90],[77.43,13.94],[77.39,14.01],[77.39,14.17],[77.50,14.15],[77.47,14.29],[77.40,14.33],[77.36,14.27],[77.13,14.33],[77.11,14.22],[77.00,14.23],[76.88,14.34],[76.90,14.48],[76.80,14.53],[76.76,14.60],[76.86,14.96],[76.76,14.98],[76.80,15.09],[76.98,15.01],[77.11,15.03],[77.15,15.14],[77.12,15.22],[77.15,15.29],[77.06,15.32],[77.03,15.43],[77.03,15.63],[77.08,15.65],[77.02,15.83],[77.07,15.90],[77.24,15.96],[77.65,15.88],[77.80,15.87],[77.88,15.90],[78.08,15.84],[78.17,15.85],[78.25,16.00],[78.41,16.07],[78.55,16.04],[78.60,16.08],[78.74,16.00],[78.92,16.12],[78.90,16.18],[79.02,16.24],[79.15,16.20],[79.21,16.22],[79.21,16.51],[79.25,16.56],[79.41,16.58],[79.44,16.61],[79.79,16.72],[79.94,16.63],[80.05,16.74],[80.05,16.97],[80.18,17.02],[80.30,16.97],[80.32,16.87],[80.56,16.76],[80.60,16.91],[80.53,16.96],[80.36,16.97],[80.58,17.15],[80.84,17.03],[80.87,17.07],[80.87,17.16],[80.94,17.21],[80.99,17.19],[81.17,17.23],[81.19,17.32],[81.27,17.31],[81.30,17.40],[81.02,17.51],[80.91,17.63],[80.88,17.73],[80.97,17.77],[81.05,17.73],[81.08,17.79],[81.16,17.85],[81.26,17.81],[81.61,17.82],[81.80,17.95],[81.97,18.01],[82.03,18.06],[82.16,18.05],[82.25,17.99],[82.31,18.04],[82.35,18.17],[82.31,18.18],[82.38,18.36],[82.36,18.42],[82.48,18.52],[82.60,18.36],[82.58,18.27],[82.77,18.34],[82.80,18.45],[82.96,18.36],[83.07,18.40],[83.01,18.45],[83.04,18.54],[82.99,18.60],[83.13,18.78],[83.20,18.75],[83.41,18.87],[83.31,18.97],[83.34,19.01],[83.45,18.95],[83.48,19.03],[83.66,19.09],[83.75,18.91],[83.74,18.99],[83.79,19.01],[83.89,18.81],[84.03,18.81],[84.08,18.75],[84.22,18.79],[84.31,18.78],[84.51,19.04],[84.59,19.02],[84.62,19.08],[84.70,19.11],[84.76,19.07],[84.35,18.55],[84.14,18.37],[84.12,18.31],[83.66,18.07],[83.41,17.85],[83.34,17.72],[83.16,17.55],[82.54,17.24],[82.31,17.05],[82.24,16.93],[82.24,16.87],[82.36,16.85],[82.31,16.55],[81.71,16.31],[81.39,16.34],[81.26,16.27],[81.21,16.20],[81.14,15.97],[81.01,15.85],[81.00,15.75],[80.93,15.71],[80.83,15.70],[80.77,15.86],[80.67,15.88],[80.53,15.85],[80.31,15.72],[80.25,15.63],[80.20,15.47],[80.12,15.36],[80.04,15.00],[80.10,14.73],[80.19,14.58],[80.13,14.22],[80.14,14.04],[80.25,13.78],[80.23,13.65],[80.26,13.56],[80.21,13.49],[80.07,13.48],[80.03,13.53],[79.94,13.36],[79.80,13.31],[79.79,13.24],[79.70,13.22],[79.68,13.29],[79.53,13.27],[79.53,13.33],[79.40,13.33],[79.43,13.18],[79.28,13.12],[79.22,13.15],[79.23,13.10],[79.16,13.02]],[[82.26,16.69],[82.27,16.72],[82.18,16.73],[82.19,16.72],[82.26,16.69]]]}},{"type":"Feature","properties":{"name":"Arunachal Pradesh"},"geometry":{"type":"Polygon","coordinates":[[[92.67,27.03],[92.56,26.95],[92.11,26.89],[92.10,27.00],[92.03,27.06],[92.02,27.16],[92.07,27.27],[92.01,27.48],[91.94,27.46],[91.65,27.48],[91.56,27.58],[91.55,27.63],[91.62,27.70],[91.63,27.80],[91.82,27.80],[91.88,27.72],[91.98,27.76],[92.05,27.75],[92.15,27.83],[92.25,27.86],[92.30,27.77],[92.56,27.82],[92.73,27.97],[92.66,28.06],[92.68,28.12],[92.80,28.20],[92.89,28.20],[93.02,28.30],[93.22,28.34],[93.18,28.43],[93.27,28.50],[93.33,28.64],[93.49,28.68],[93.62,28.65],[93.96,28.71],[93.99,28.84],[94.15,28.95],[94.18,29.03],[94.29,29.14],[94.35,29.15],[94.43,29.22],[94.56,29.22],[94.57,29.28],[94.67,29.32],[94.87,29.18],[95.25,29.10],[95.26,29.04],[95.45,29.03],[95.53,29.21],[95.88,29.38],[95.95,29.38],[96.08,29.45],[96.24,29.23],[96.39,29.25],[96.34,29.16],[96.21,29.13],[96.15,29.04],[96.24,28.93],[96.34,29.02],[96.43,29.03],[96.51,28.96],[96.53,28.88],[96.60,28.79],[96.58,28.71],[96.47,28.68],[96.49,28.63],[96.32,28.51],[96.37,28.48],[96.31,28.38],[96.66,28.45],[96.78,28.36],[96.89,28.38],[96.99,28.31],[97.08,28.36],[97.17,28.29],[97.37,28.21],[97.32,28.15],[97.32,28.05],[97.38,28.00],[97.37,27.90],[97.25,27.90],[97.03,27.74],[96.90,27.61],[96.86,27.63],[96.93,27.50],[96.90,27.45],[97.16,27.14],[97.06,27.09],[96.98,27.15],[96.85,27.18],[96.88,27.25],[96.79,27.34],[96.60,27.36],[96.50,27.29],[96.30,27.29],[96.08,27.22],[96.02,27.18],[95.94,27.05],[95.80,27.01],[95.74,26.89],[95.68,26.90],[95.60,26.81],[95.49,26.81],[95.42,26.69],[95.30,26.65],[95.23,26.68],[95.20,26.84],[95.22,26.92],[95.19,27.03],[95.25,27.03],[95.44,27.13],[95.48,27.24],[95.53,27.26],[95.63,27.23],[95.85,27.27],[96.01,27.36],[95.94,27.43],[95.88,27.43],[95.87,27.54],[95.78,27.62],[95.77,27.73],[95.96,27.95],[95.81,27.97],[95.60,27.95],[95.51,27.87],[95.37,27.83],[95.30,27.86],[95.13,27.81],[94.85,27.72],[94.46,27.55],[94.23,27.63],[94.21,27.60],[94.26,27.51],[93.99,27.32],[93.80,27.14],[93.82,27.06],[93.66,26.96],[93.02,26.91],[92.88,27.00],[92.67,27.03]]]}},{"type":"Feature","properties":{"name":"Assam"},"geometry":{"type":"Polygon","coordinates":[[[92.53,24.17],[92.43,24.15],[92.42,24.25],[92.29,24.24],[92.21,24.28],[92.26,24.35],[92.21,24.50],[92.29,24.73],[92.23,24.89],[92.29,24.91],[92.38,24.85],[92.51,24.88],[92.42,25.02],[92.48,25.10],[92.62,25.11],[92.79,25.28],[92.65,25.43],[92.56,25.46],[92.66,25.57],[92.58,25.55],[92.44,25.72],[92.22,25.71],[92.15,25.67],[92.15,25.81],[92.20,25.90],[92.16,25.97],[92.27,26.06],[91.86,26.04],[91.82,26.11],[91.72,26.03],[91.72,25.96],[91.57,26.03],[91.44,25.83],[91.33,25.84],[91.22,25.72],[91.14,25.85],[91.00,25.82],[91.02,25.88],[90.94,25.94],[90.71,25.95],[90.63,25.91],[90.43,25.99],[90.18,25.94],[90.12,25.95],[89.89,25.72],[90.01,25.60],[89.87,25.54],[89.85,25.46],[89.88,25.61],[89.82,25.73],[89.84,25.88],[89.88,25.94],[89.70,26.21],[89.78,26.35],[89.84,26.38],[89.85,26.73],[90.04,26.73],[90.19,26.77],[90.23,26.85],[90.33,26.86],[90.41,26.90],[90.54,26.81],[90.71,26.76],[91.05,26.78],[91.09,26.82],[91.33,26.78],[91.40,26.84],[91.49,26.79],[91.70,26.81],[91.89,26.91],[92.05,26.84],[92.11,26.89],[92.56,26.95],[92.67,27.03],[92.88,27.00],[93.02,26.91],[93.66,26.96],[93.82,27.06],[93.80,27.14],[93.99,27.32],[94.26,27.51],[94.21,27.60],[94.23,27.63],[94.46,27.55],[94.85,27.72],[95.13,27.81],[95.30,27.86],[95.37,27.83],[95.51,27.87],[95.60,27.95],[95.96,27.95],[95.77,27.73],[95.78,27.62],[95.87,27.54],[95.88,27.43],[95.94,27.43],[96.01,27.36],[95.85,27.27],[95.63,27.23],[95.53,27.26],[95.48,27.24],[95.44,27.13],[94.98,26.91],[94.92,26.94],[94.73,26.74],[94.58,26.72],[94.40,26.61],[94.40,26.53],[94.31,26.46],[94.28,26.56],[94.18,26.45],[94.16,26.35],[94.10,26.31],[94.00,26.17],[93.95,25.96],[93.97,25.91],[93.88,25.84],[93.77,25.84],[93.77,25.96],[93.68,25.90],[93.70,25.85],[93.32,25.54],[93.45,25.43],[93.46,25.30],[93.38,25.24],[93.17,24.79],[93.10,24.81],[93.08,24.57],[93.04,24.54],[93.00,24.41],[92.89,24.39],[92.79,24.41],[92.76,24.51],[92.68,24.35],[92.62,24.33],[92.61,24.25],[92.55,24.24],[92.53,24.17]]]}},{"type":"Feature","properties":{"name":"Bihar"},"geometry":{"type":"Polygon","coordinates":[[[85.02,24.41],[84.90,24.37],[84.88,24.46],[84.80,24.53],[84.58,24.40],[84.49,24.28],[84.45,24.33],[84.34,24.39],[84.32,24.48],[84.25,24.52],[84.09,24.53],[84.00,24.64],[83.93,24.54],[83.87,24.53],[83.71,24.50],[83.50,24.52],[83.53,24.64],[83.48,24.73],[83.39,24.78],[83.34,25.18],[83.53,25.30],[83.84,25.43],[83.93,25.55],[84.08,25.63],[84.07,25.69],[84.14,25.73],[84.20,25.66],[84.31,25.66],[84.33,25.74],[84.55,25.68],[84.62,25.79],[84.35,25.95],[84.29,25.94],[84.05,26.09],[84.08,26.21],[84.17,26.26],[84.15,26.37],[83.90,26.44],[83.91,26.50],[84.05,26.55],[84.11,26.63],[84.28,26.59],[84.41,26.63],[84.32,26.68],[84.25,26.80],[84.06,26.88],[84.04,27.04],[83.96,27.08],[83.99,27.17],[83.86,27.33],[83.83,27.42],[84.01,27.43],[84.09,27.51],[84.25,27.45],[84.27,27.39],[84.62,27.33],[84.68,27.22],[84.64,27.04],[84.75,27.00],[84.82,27.02],[84.96,26.96],[85.03,26.87],[85.19,26.86],[85.17,26.79],[85.25,26.75],[85.33,26.74],[85.64,26.85],[85.72,26.80],[85.72,26.67],[85.85,26.56],[85.95,26.65],[86.02,26.66],[86.54,26.53],[86.57,26.49],[86.72,26.42],[86.84,26.44],[87.04,26.56],[87.09,26.45],[87.16,26.40],[87.36,26.40],[87.46,26.44],[87.58,26.38],[87.84,26.43],[88.03,26.39],[88.09,26.45],[88.10,26.54],[88.23,26.45],[88.27,26.33],[87.85,26.03],[87.82,25.93],[87.82,25.89],[87.89,25.86],[87.96,25.72],[88.05,25.70],[88.02,25.59],[88.06,25.48],[87.96,25.53],[87.76,25.41],[87.78,25.34],[87.84,25.29],[87.81,25.24],[87.71,25.25],[87.69,25.31],[87.55,25.33],[87.47,25.19],[87.32,25.22],[87.29,25.08],[87.17,25.05],[87.14,25.01],[87.15,24.88],[87.10,24.85],[87.05,24.62],[86.95,24.63],[86.91,24.54],[86.75,24.61],[86.65,24.57],[86.61,24.60],[86.49,24.51],[86.45,24.37],[86.27,24.46],[86.30,24.56],[86.13,24.60],[86.12,24.69],[86.05,24.77],[85.93,24.73],[85.73,24.81],[85.66,24.66],[85.67,24.59],[85.54,24.53],[85.37,24.55],[85.33,24.51],[85.28,24.52],[85.08,24.37],[85.02,24.41]]]}},{"type":"Feature","properties":{"name":"Chandigarh"},"geometry":{"type":"Polygon","coordinates":[[[76.73,30.69],[76.70,30.76],[76.83,30.75],[76.82,30.68],[76.73,30.69]]]}},{"type":"Feature","properties":{"name":"Chhattisgarh"},"geometry":{"type":"Polygon","coordinates":[[[81.65,18.34],[81.52,18.24],[81.48,17.97],[81.39,17.89],[81.39,17.81],[81.26,17.81],[81.16,17.85],[81.08,17.79],[81.01,17.79],[80.97,18.04],[80.97,18.16],[80.86,18.13],[80.85,18.20],[80.75,18.16],[80.70,18.43],[80.63,18.52],[80.45,18.63],[80.37,18.61],[80.27,18.71],[80.27,18.76],[80.34,18.84],[80.27,18.94],[80.33,19.14],[80.39,19.18],[80.48,19.33],[80.57,19.39],[80.61,19.30],[80.75,19.28],[80.85,19.36],[80.89,19.51],[80.71,19.61],[80.67,19.70],[80.56,19.75],[80.54,19.81],[80.46,19.82],[80.52,19.93],[80.54,20.10],[80.50,20.14],[80.43,20.13],[80.39,20.24],[80.62,20.33],[80.59,20.39],[80.61,20.58],[80.52,20.57],[80.58,20.67],[80.54,20.93],[80.46,20.92],[80.43,21.09],[80.46,21.17],[80.61,21.22],[80.73,21.47],[80.71,21.66],[80.75,21.76],[80.81,21.76],[80.90,22.11],[81.00,22.05],[81.04,22.24],[81.11,22.29],[81.11,22.43],[81.19,22.49],[81.24,22.45],[81.32,22.52],[81.47,22.48],[81.62,22.53],[81.64,22.61],[81.79,22.76],[81.77,22.87],[81.86,22.88],[81.95,22.98],[81.94,23.07],[82.12,23.10],[82.19,23.31],[82.10,23.39],[81.98,23.41],[81.91,23.53],[81.82,23.51],[81.75,23.54],[81.61,23.51],[81.61,23.66],[81.69,23.72],[81.60,23.88],[81.66,23.92],[81.72,23.83],[81.80,23.80],[81.92,23.87],[82.08,23.81],[82.20,23.85],[82.49,23.78],[82.63,23.83],[82.69,23.91],[82.81,23.96],[82.94,23.87],[83.09,23.87],[83.20,23.92],[83.32,24.10],[83.43,24.08],[83.57,23.86],[83.70,23.82],[83.77,23.60],[83.93,23.56],[84.01,23.63],[84.01,23.50],[83.96,23.38],[84.07,23.33],[84.03,23.17],[84.06,23.11],[84.17,22.98],[84.37,22.97],[84.39,22.92],[84.23,22.69],[84.15,22.63],[84.08,22.63],[84.01,22.57],[84.04,22.46],[84.01,22.37],[83.86,22.34],[83.62,22.20],[83.53,22.04],[83.59,21.82],[83.46,21.69],[83.48,21.64],[83.38,21.62],[83.33,21.50],[83.39,21.40],[83.39,21.34],[83.26,21.37],[83.19,21.13],[83.07,21.11],[82.96,21.17],[82.64,21.15],[82.63,21.08],[82.56,20.94],[82.48,20.90],[82.45,20.82],[82.33,20.87],[82.37,20.63],[82.33,20.56],[82.43,20.43],[82.39,20.34],[82.42,20.20],[82.38,20.14],[82.39,20.05],[82.71,19.98],[82.69,19.83],[82.59,19.77],[82.53,19.87],[82.44,19.91],[82.34,19.83],[82.26,19.97],[82.18,19.98],[82.06,20.05],[82.01,20.04],[81.94,20.10],[81.87,20.05],[81.84,19.95],[81.86,19.90],[81.96,19.85],[81.98,19.80],[82.06,19.79],[82.02,19.50],[82.10,19.51],[82.12,19.42],[82.18,19.42],[82.16,19.20],[82.24,18.91],[82.17,18.90],[82.15,18.78],[82.09,18.73],[81.89,18.66],[81.91,18.57],[81.76,18.41],[81.75,18.35],[81.65,18.34]]]}},{"type":"Feature","properties":{"name":"Dadra and Nagar Haveli and Daman and Diu"},"geometry":{"type":"MultiPolygon","coordinates":[[[[73.16,20.28],[73.13,20.19],[73.21,20.12],[73.13,20.08],[72.96,20.12],[72.93,20.29],[73.04,20.32],[73.16,20.28]]],[[[72.83,20.45],[72.88,20.46],[72.82,20.36],[72.83,20.45]]],[[[70.97,20.70],[70.92,20.74],[70.99,20.74],[70.97,20.70]]]]}},{"type":"Feature","properties":{"name":"Delhi"},"geometry":{"type":"Polygon","coordinates":[[[77.29,28.70],[77.34,28.60],[77.29,28.56],[77.34,28.52],[77.25,28.48],[77.17,28.40],[77.09,28.50],[77.00,28.54],[76.88,28.50],[76.84,28.55],[76.88,28.63],[76.97,28.69],[76.94,28.79],[76.96,28.81],[77.12,28.85],[77.21,28.85],[77.20,28.79],[77.29,28.70]]]}},{"type":"Feature","properties":{"name":"Goa"},"geometry":{"type":"Polygon","coordinates":[[[74.27,15.39],[74.32,15.36],[74.32,15.28],[74.26,15.24],[74.31,15.18],[74.27,15.09],[74.29,15.04],[74.20,14.92],[74.08,14.90],[73.98,15.05],[73.88,15.35],[73.93,15.43],[73.76,15.49],[73.68,15.72],[73.93,15.74],[73.99,15.61],[74.23,15.66],[74.27,15.52],[74.25,15.49],[74.27,15.39]]]}},{"type":"Feature","properties":{"name":"Gujarat"},"geometry":{"type":"MultiPolygon","coordinates":[[[[72.31,21.84],[72.29,21.96],[72.37,22.02],[72.43,21.92],[72.35,21.79],[72.31,21.84]]],[[[70.44,20.84],[70.09,21.11],[69.70,21.53],[69.37,21.82],[69.39,21.88],[69.35,21.83],[69.21,21.95],[68.96,22.23],[68.93,22.31],[69.00,22.43],[69.16,22.34],[69.17,22.21],[69.34,22.31],[69.49,22.33],[69.54,22.37],[69.62,22.37],[69.86,22.46],[69.97,22.54],[70.12,22.55],[70.22,22.66],[70.21,22.71],[70.39,22.90],[70.44,22.84],[70.56,23.02],[70.68,23.11],[70.71,23.18],[70.50,23.17],[70.42,23.21],[70.31,23.21],[70.16,23.06],[70.08,22.91],[69.64,22.79],[69.13,22.87],[68.63,23.16],[68.53,23.27],[68.55,23.35],[68.40,23.42],[68.41,23.48],[68.32,23.49],[68.31,23.57],[68.14,23.60],[68.10,23.67],[68.17,23.69],[68.20,23.87],[68.33,23.96],[68.75,23.97],[68.76,24.29],[68.84,24.23],[68.94,24.30],[69.00,24.22],[69.09,24.27],[69.19,24.23],[69.31,24.28],[69.49,24.26],[69.59,24.29],[69.73,24.17],[70.02,24.17],[70.10,24.29],[70.57,24.42],[70.57,24.25],[70.80,24.22],[70.98,24.36],[71.04,24.35],[71.10,24.43],[70.99,24.44],[70.98,24.59],[71.11,24.67],[71.28,24.61],[71.34,24.66],[71.37,24.62],[71.47,24.67],[71.60,24.67],[71.65,24.63],[72.05,24.71],[72.16,24.62],[72.34,24.62],[72.35,24.56],[72.44,24.51],[72.43,24.48],[72.49,24.41],[72.49,24.45],[72.53,24.51],[72.68,24.46],[72.72,24.36],[72.95,24.36],[73.00,24.48],[73.08,24.49],[73.07,24.39],[73.15,24.35],[73.06,24.19],[73.21,24.07],[73.24,24.00],[73.31,24.05],[73.40,24.04],[73.41,23.92],[73.37,23.90],[73.36,23.81],[73.52,23.60],[73.57,23.65],[73.65,23.62],[73.62,23.44],[73.75,23.45],[73.83,23.42],[73.89,23.33],[73.95,23.38],[73.98,23.33],[74.13,23.26],[74.12,23.17],[74.24,23.18],[74.39,22.89],[74.46,22.90],[74.46,22.81],[74.40,22.73],[74.37,22.63],[74.26,22.64],[74.15,22.52],[74.05,22.54],[74.11,22.41],[74.21,22.44],[74.18,22.32],[74.06,22.35],[74.05,22.29],[74.12,22.21],[74.09,22.01],[74.14,21.95],[73.81,21.84],[73.82,21.76],[73.88,21.71],[73.81,21.64],[73.83,21.52],[74.16,21.56],[74.27,21.56],[74.32,21.49],[74.04,21.44],[73.95,21.39],[73.94,21.30],[73.82,21.27],[73.81,21.17],[73.66,21.15],[73.88,20.93],[73.94,20.83],[73.91,20.72],[73.87,20.72],[73.83,20.62],[73.74,20.56],[73.65,20.56],[73.61,20.62],[73.47,20.72],[73.40,20.62],[73.47,20.58],[73.46,20.49],[73.40,20.38],[73.41,20.20],[73.29,20.21],[73.24,20.12],[73.21,20.12],[73.13,20.19],[73.16,20.28],[73.04,20.32],[72.93,20.29],[72.96,20.20],[72.87,20.22],[72.77,20.13],[72.74,20.24],[72.77,20.33],[72.88,20.46],[72.90,20.57],[72.72,21.04],[72.75,21.06],[72.62,21.09],[72.63,21.21],[72.59,21.31],[72.65,21.34],[72.69,21.46],[72.73,21.47],[72.70,21.52],[72.61,21.58],[72.70,21.64],[72.54,21.73],[72.62,21.80],[72.50,21.94],[72.56,22.18],[72.64,22.21],[72.75,22.17],[72.86,22.21],[72.94,22.29],[72.65,22.27],[72.51,22.32],[72.46,22.25],[72.37,22.31],[72.20,21.89],[72.24,21.82],[72.19,21.74],[72.30,21.62],[72.23,21.45],[72.10,21.30],[72.11,21.19],[71.51,20.94],[71.43,20.86],[71.05,20.73],[70.92,20.74],[70.82,20.68],[70.44,20.84]]]]}},{"type":"Feature","properties":{"name":"Haryana"},"geometry":{"type":"Polygon","coordinates":[[[76.05,28.22],[75.89,28.38],[75.67,28.51],[75.62,28.60],[75.56,28.61],[75.47,28.92],[75.52,28.97],[75.44,29.05],[75.39,29.06],[75.40,29.26],[75.34,29.28],[75.08,29.22],[75.05,29.28],[74.96,29.28],[74.93,29.36],[74.85,29.40],[74.78,29.36],[74.60,29.36],[74.58,29.45],[74.62,29.53],[74.57,29.56],[74.61,29.75],[74.48,29.74],[74.48,29.81],[74.56,29.86],[74.52,29.94],[74.64,29.91],[74.70,29.97],[74.81,29.99],[74.92,29.95],[74.99,29.86],[75.11,29.83],[75.19,29.84],[75.24,29.75],[75.16,29.66],[75.30,29.55],[75.34,29.69],[75.46,29.80],[75.57,29.73],[75.77,29.82],[75.94,29.72],[76.04,29.74],[76.09,29.81],[76.21,29.84],[76.17,29.92],[76.25,30.08],[76.41,30.14],[76.46,30.09],[76.57,30.10],[76.64,30.14],[76.56,30.24],[76.71,30.32],[76.74,30.42],[76.91,30.42],[76.92,30.61],[76.82,30.68],[76.84,30.83],[76.77,30.90],[76.86,30.87],[76.91,30.90],[77.02,30.74],[77.16,30.68],[77.17,30.60],[77.12,30.56],[77.20,30.48],[77.40,30.42],[77.52,30.44],[77.57,30.37],[77.58,30.30],[77.22,29.93],[77.17,29.80],[77.11,29.75],[77.15,29.68],[77.10,29.63],[77.15,29.29],[77.14,29.16],[77.16,29.03],[77.23,28.91],[77.21,28.85],[77.12,28.85],[76.94,28.79],[76.97,28.69],[76.88,28.63],[76.84,28.55],[76.88,28.50],[77.00,28.54],[77.09,28.50],[77.17,28.40],[77.25,28.48],[77.34,28.52],[77.50,28.37],[77.47,28.08],[77.54,27.98],[77.52,27.92],[77.28,27.79],[77.04,27.82],[76.97,27.65],[76.89,27.73],[76.94,27.84],[76.93,27.99],[76.96,28.13],[76.85,28.22],[76.79,28.14],[76.68,28.08],[76.66,28.01],[76.53,27.97],[76.54,28.03],[76.31,28.17],[76.35,28.12],[76.31,28.01],[76.26,28.06],[76.15,27.99],[76.16,27.90],[76.22,27.83],[76.17,27.79],[75.97,27.85],[75.93,27.92],[75.97,27.93],[75.99,28.12],[76.05,28.22]]]}},{"type":"Feature","properties":{"name":"Himachal Pradesh"},"geometry":{"type":"Polygon","coordinates":[[[76.91,30.90],[76.86,30.87],[76.62,30.99],[76.64,31.20],[76.58,31.27],[76.49,31.26],[76.39,31.41],[76.28,31.30],[76.20,31.30],[76.12,31.49],[76.01,31.63],[75.91,31.95],[75.59,32.08],[75.66,32.13],[75.63,32.25],[75.77,32.28],[75.87,32.39],[75.93,32.39],[75.83,32.51],[75.91,32.63],[75.92,32.74],[75.80,32.88],[75.85,32.92],[75.95,32.87],[76.08,32.95],[76.11,33.00],[76.22,33.02],[76.41,33.18],[76.56,33.20],[76.64,33.16],[76.74,33.17],[76.77,33.25],[76.93,33.02],[77.00,32.98],[77.15,32.97],[77.33,32.81],[77.40,32.88],[77.46,32.85],[77.60,32.94],[77.74,32.96],[77.93,32.72],[77.91,32.69],[78.01,32.62],[78.09,32.63],[78.14,32.68],[78.21,32.66],[78.38,32.75],[78.40,32.62],[78.31,32.57],[78.53,32.41],[78.48,32.34],[78.48,32.27],[78.60,32.21],[78.59,32.15],[78.78,31.99],[78.70,31.77],[78.76,31.67],[78.84,31.60],[78.73,31.53],[78.79,31.44],[78.74,31.36],[78.79,31.30],[78.88,31.28],[79.00,31.11],[78.88,31.09],[78.80,31.19],[78.67,31.19],[78.60,31.22],[78.48,31.19],[78.37,31.28],[78.10,31.18],[77.96,31.17],[77.86,31.10],[77.80,30.85],[77.70,30.76],[77.81,30.56],[77.81,30.50],[77.57,30.40],[77.57,30.37],[77.52,30.44],[77.40,30.42],[77.20,30.48],[77.12,30.56],[77.17,30.60],[77.16,30.68],[77.02,30.74],[76.91,30.90]]]}},{"type":"Feature","properties":{"name":"Jammu and Kashmir"},"geometry":{"type":"Polygon","coordinates":[[[74.86,32.48],[74.68,32.49],[74.63,32.61],[74.65,32.78],[74.51,32.74],[74.44,32.78],[74.38,32.75],[74.17,32.88],[74.05,32.90],[73.95,32.98],[73.62,33.09],[73.65,33.20],[73.56,33.34],[73.62,33.57],[73.56,33.62],[73.59,33.71],[73.55,33.77],[73.58,33.88],[73.52,33.98],[73.49,34.22],[73.39,34.37],[73.44,34.57],[73.61,34.58],[73.74,34.78],[73.96,34.84],[74.07,34.93],[74.06,35.04],[74.14,35.09],[74.25,35.03],[74.48,35.10],[74.58,35.00],[74.56,34.87],[74.31,34.78],[74.56,34.76],[74.73,34.67],[74.92,34.66],[75.02,34.62],[75.23,34.62],[75.35,34.52],[75.31,34.43],[75.37,34.38],[75.41,34.28],[75.68,34.15],[75.86,33.97],[76.02,33.99],[76.17,33.79],[76.26,33.74],[76.30,33.57],[76.50,33.51],[76.77,33.25],[76.74,33.17],[76.64,33.16],[76.56,33.20],[76.41,33.18],[76.22,33.02],[76.11,33.00],[76.08,32.95],[75.95,32.87],[75.85,32.92],[75.80,32.88],[75.92,32.74],[75.91,32.63],[75.83,32.51],[75.72,32.45],[75.68,32.39],[75.59,32.37],[75.51,32.30],[75.34,32.34],[75.10,32.46],[74.94,32.44],[74.88,32.52],[74.86,32.48]]]}},{"type":"Feature","properties":{"name":"Jharkhand"},"geometry":{"type":"Polygon","coordinates":[[[86.03,22.18],[86.00,22.11],[85.89,21.98],[85.78,21.98],[85.74,22.07],[85.68,22.05],[85.39,22.16],[85.27,22.08],[85.23,22.00],[85.18,22.07],[85.02,22.12],[85.07,22.25],[85.06,22.49],[84.95,22.44],[84.80,22.45],[84.75,22.41],[84.53,22.42],[84.42,22.35],[84.29,22.34],[84.19,22.37],[84.11,22.47],[84.01,22.52],[84.01,22.57],[84.08,22.63],[84.15,22.63],[84.23,22.69],[84.39,22.92],[84.37,22.97],[84.17,22.98],[84.06,23.11],[84.03,23.17],[84.07,23.33],[83.96,23.38],[84.01,23.50],[84.01,23.63],[83.93,23.56],[83.77,23.60],[83.70,23.82],[83.57,23.86],[83.43,24.08],[83.32,24.10],[83.40,24.26],[83.38,24.31],[83.40,24.49],[83.87,24.53],[83.93,24.54],[84.00,24.64],[84.09,24.53],[84.25,24.52],[84.32,24.48],[84.34,24.39],[84.45,24.33],[84.49,24.28],[84.58,24.40],[84.80,24.53],[84.88,24.46],[84.90,24.37],[85.02,24.41],[85.08,24.37],[85.37,24.55],[85.54,24.53],[85.67,24.59],[85.66,24.66],[85.73,24.81],[85.93,24.73],[86.05,24.77],[86.12,24.69],[86.13,24.60],[86.30,24.56],[86.27,24.46],[86.45,24.37],[86.49,24.51],[86.61,24.60],[86.65,24.57],[86.75,24.61],[86.91,24.54],[86.95,24.63],[87.05,24.62],[87.10,24.85],[87.15,24.88],[87.14,25.01],[87.17,25.05],[87.29,25.08],[87.32,25.22],[87.47,25.19],[87.55,25.33],[87.69,25.31],[87.71,25.25],[87.77,25.24],[87.79,25.08],[87.95,24.97],[87.96,24.92],[87.83,24.74],[87.90,24.72],[87.88,24.56],[87.79,24.58],[87.80,24.38],[87.70,24.26],[87.63,24.25],[87.63,24.16],[87.44,23.98],[87.33,24.03],[87.23,24.02],[87.29,23.90],[87.23,23.85],[87.12,23.85],[87.08,23.81],[86.91,23.88],[86.80,23.83],[86.82,23.76],[86.80,23.69],[86.48,23.63],[86.36,23.53],[86.31,23.41],[86.17,23.46],[86.15,23.55],[86.08,23.56],[86.03,23.49],[85.88,23.48],[85.85,23.42],[85.88,23.35],[85.81,23.26],[85.88,23.16],[86.04,23.14],[86.24,22.99],[86.50,22.99],[86.43,22.92],[86.41,22.79],[86.64,22.65],[86.65,22.57],[86.76,22.57],[86.80,22.48],[86.76,22.42],[86.84,22.40],[86.83,22.32],[86.72,22.21],[86.49,22.34],[86.42,22.31],[86.35,22.34],[86.28,22.44],[86.11,22.48],[86.06,22.55],[85.96,22.48],[86.01,22.42],[86.02,22.33],[85.97,22.24],[86.03,22.18]]]}},{"type":"Feature","properties":{"name":"Karnataka"},"geometry":{"type":"Polygon","coordinates":[[[76.00,11.93],[75.87,11.95],[75.79,12.05],[75.57,12.15],[75.48,12.29],[75.41,12.29],[75.42,12.37],[75.36,12.41],[75.41,12.49],[75.28,12.52],[75.11,12.68],[74.86,12.75],[74.82,12.84],[74.66,13.63],[74.58,13.92],[74.51,13.98],[74.39,14.41],[74.26,14.62],[74.26,14.71],[74.11,14.78],[74.08,14.90],[74.20,14.92],[74.29,15.04],[74.27,15.09],[74.31,15.18],[74.26,15.24],[74.32,15.28],[74.32,15.36],[74.27,15.39],[74.25,15.49],[74.27,15.52],[74.23,15.66],[74.11,15.65],[74.12,15.72],[74.20,15.78],[74.23,15.74],[74.34,15.76],[74.46,16.03],[74.37,16.07],[74.48,16.14],[74.48,16.24],[74.37,16.26],[74.31,16.32],[74.31,16.55],[74.54,16.63],[74.57,16.55],[74.63,16.58],[74.69,16.71],[74.91,16.77],[74.90,16.86],[75.08,16.95],[75.18,16.84],[75.26,16.86],[75.28,16.95],[75.46,16.98],[75.66,16.97],[75.67,17.11],[75.62,17.17],[75.65,17.27],[75.60,17.30],[75.57,17.38],[75.63,17.47],[75.81,17.37],[75.89,17.40],[75.93,17.32],[76.22,17.36],[76.38,17.31],[76.37,17.43],[76.33,17.47],[76.33,17.59],[76.48,17.65],[76.52,17.76],[76.68,17.68],[76.71,17.78],[76.79,17.82],[76.74,17.89],[76.77,17.87],[76.91,17.91],[76.90,18.00],[76.95,18.04],[76.92,18.11],[76.95,18.18],[77.06,18.15],[77.26,18.42],[77.31,18.44],[77.41,18.39],[77.40,18.30],[77.46,18.26],[77.55,18.29],[77.60,18.27],[77.56,18.19],[77.59,18.09],[77.54,18.05],[77.65,17.96],[77.45,17.69],[77.44,17.58],[77.68,17.51],[77.51,17.43],[77.37,17.22],[77.36,17.15],[77.46,17.11],[77.49,17.04],[77.45,16.88],[77.47,16.78],[77.42,16.72],[77.45,16.61],[77.41,16.51],[77.24,16.47],[77.28,16.40],[77.59,16.34],[77.50,16.22],[77.51,15.92],[77.24,15.96],[77.07,15.90],[77.02,15.83],[77.08,15.65],[77.03,15.63],[77.03,15.43],[77.06,15.32],[77.15,15.29],[77.12,15.22],[77.15,15.14],[77.11,15.03],[76.98,15.01],[76.80,15.09],[76.76,14.98],[76.86,14.96],[76.76,14.60],[76.80,14.53],[76.90,14.48],[76.88,14.34],[77.00,14.23],[77.11,14.22],[77.13,14.33],[77.36,14.27],[77.40,14.33],[77.47,14.29],[77.50,14.15],[77.39,14.17],[77.39,14.01],[77.43,13.94],[77.39,13.90],[77.32,14.03],[77.17,14.01],[77.02,14.06],[77.00,14.19],[76.89,14.16],[76.94,14.09],[76.93,14.03],[77.04,13.93],[76.97,13.82],[77.06,13.74],[77.15,13.80],[77.18,13.86],[77.32,13.83],[77.43,13.84],[77.46,13.75],[77.45,13.68],[77.78,13.81],[77.81,13.91],[77.96,13.95],[78.00,13.87],[78.11,13.86],[78.12,13.71],[78.20,13.62],[78.19,13.56],[78.40,13.58],[78.36,13.36],[78.44,13.30],[78.58,13.27],[78.46,12.97],[78.35,12.94],[78.31,12.85],[78.25,12.86],[78.23,12.76],[78.13,12.78],[78.05,12.85],[77.97,12.83],[77.92,12.89],[77.83,12.86],[77.73,12.67],[77.60,12.66],[77.58,12.51],[77.63,12.48],[77.61,12.36],[77.47,12.24],[77.50,12.19],[77.61,12.20],[77.74,12.15],[77.77,12.11],[77.67,11.95],[77.49,11.94],[77.42,11.76],[77.29,11.80],[77.11,11.77],[77.01,11.81],[76.90,11.79],[76.83,11.65],[76.84,11.59],[76.56,11.62],[76.51,11.70],[76.41,11.67],[76.41,11.75],[76.31,11.75],[76.20,11.86],[76.11,11.85],[76.11,11.97],[76.00,11.93]]]}},{"type":"Feature","properties":{"name":"Kerala"},"geometry":{"type":"Polygon","coordinates":[[[76.89,10.25],[76.98,10.21],[77.18,10.35],[77.28,10.23],[77.21,9.87],[77.24,9.79],[77.16,9.61],[77.26,9.57],[77.31,9.60],[77.40,9.52],[77.28,9.29],[77.26,9.15],[77.14,9.00],[77.25,8.87],[77.17,8.74],[77.26,8.57],[77.26,8.50],[77.09,8.29],[76.54,8.90],[76.31,9.48],[76.28,9.78],[76.16,10.18],[76.21,10.19],[76.16,10.18],[75.91,10.79],[75.82,11.12],[75.69,11.42],[75.61,11.47],[75.55,11.70],[75.35,11.85],[75.25,12.00],[75.20,12.00],[74.86,12.75],[75.11,12.68],[75.28,12.52],[75.41,12.49],[75.36,12.41],[75.42,12.37],[75.41,12.29],[75.48,12.29],[75.57,12.15],[75.79,12.05],[75.87,11.95],[76.00,11.93],[76.11,11.97],[76.11,11.85],[76.20,11.86],[76.31,11.75],[76.41,11.75],[76.41,11.67],[76.37,11.60],[76.23,11.52],[76.54,11.35],[76.52,11.27],[76.44,11.20],[76.62,11.19],[76.70,11.23],[76.69,11.16],[76.75,11.07],[76.65,10.93],[76.83,10.87],[76.90,10.78],[76.83,10.59],[76.81,10.42],[76.83,10.33],[76.89,10.25]],[[75.54,11.73],[75.53,11.71],[75.55,11.72],[75.54,11.73]]]}},{"type":"Feature","properties":{"name":"Ladakh"},"geometry":{"type":"Polygon","coordinates":[[[77.15,32.97],[77.00,32.98],[76.93,33.02],[76.77,33.25],[76.50,33.51],[76.30,33.57],[76.26,33.74],[76.17,33.79],[76.02,33.99],[75.86,33.97],[75.68,34.15],[75.41,34.28],[75.37,34.38],[75.31,34.43],[75.35,34.52],[75.23,34.62],[75.02,34.62],[74.92,34.66],[74.73,34.67],[74.56,34.76],[74.31,34.78],[74.56,34.87],[74.58,35.00],[74.48,35.10],[74.25,35.03],[73.79,35.24],[73.73,35.21],[73.70,35.35],[73.79,35.46],[73.78,35.52],[73.63,35.57],[73.40,35.56],[73.13,35.71],[73.15,35.84],[73.08,35.88],[72.92,35.84],[72.90,35.88],[72.68,35.83],[72.53,35.91],[72.59,36.02],[72.53,36.07],[72.59,36.26],[72.77,36.30],[72.88,36.38],[72.87,36.44],[72.99,36.45],[73.11,36.60],[73.12,36.68],[73.44,36.74],[73.70,36.68],[73.80,36.71],[73.86,36.78],[73.72,36.83],[73.68,36.91],[73.87,36.89],[74.05,36.80],[74.14,36.83],[74.16,36.90],[74.26,36.88],[74.42,36.98],[74.53,36.98],[74.58,37.04],[74.70,37.07],[74.73,37.02],[74.83,37.02],[74.92,36.90],[75.01,36.97],[75.09,36.94],[75.20,37.03],[75.34,37.05],[75.35,36.98],[75.42,36.96],[75.47,36.81],[75.61,36.76],[75.74,36.58],[75.92,36.50],[76.07,36.47],[76.25,36.34],[76.35,36.35],[76.43,36.30],[76.48,36.21],[76.59,36.16],[76.64,36.18],[76.71,36.08],[76.80,36.04],[76.72,35.95],[76.81,35.84],[76.93,35.78],[77.11,35.79],[77.16,35.73],[77.43,35.65],[77.46,35.57],[77.43,35.51],[77.61,35.46],[77.81,35.51],[77.89,35.46],[77.96,35.57],[78.04,35.58],[78.13,35.53],[78.19,35.66],[78.27,35.72],[78.38,35.73],[78.42,35.78],[78.52,35.76],[78.66,35.85],[78.82,35.85],[78.95,35.89],[79.02,35.84],[79.13,35.83],[79.19,35.88],[79.21,35.97],[79.37,35.99],[79.42,35.89],[79.86,35.78],[79.99,35.83],[80.10,35.68],[80.28,35.60],[80.32,35.46],[80.18,35.16],[80.17,35.00],[80.07,34.82],[80.06,34.71],[79.85,34.68],[79.77,34.62],[79.79,34.48],[79.59,34.50],[79.50,34.47],[79.59,34.28],[79.50,34.20],[79.49,34.13],[79.35,34.03],[79.02,34.05],[78.90,33.97],[79.10,33.61],[78.98,33.61],[78.91,33.57],[78.93,33.43],[78.98,33.33],[79.10,33.29],[79.45,33.25],[79.37,33.08],[79.42,32.96],[79.62,32.73],[79.44,32.53],[79.31,32.59],[79.19,32.48],[79.13,32.47],[79.11,32.38],[79.03,32.38],[78.98,32.33],[78.85,32.43],[78.77,32.55],[78.76,32.65],[78.66,32.65],[78.45,32.58],[78.39,32.52],[78.31,32.57],[78.40,32.62],[78.38,32.75],[78.21,32.66],[78.14,32.68],[78.09,32.63],[78.01,32.62],[77.91,32.69],[77.93,32.72],[77.74,32.96],[77.60,32.94],[77.46,32.85],[77.40,32.88],[77.33,32.81],[77.15,32.97]]]}},{"type":"Feature","properties":{"name":"Lakshadweep"},"geometry":{"type":"Polygon","coordinates":[[[73.04,8.26],[73.01,8.27],[73.05,8.27],[73.04,8.26]]]}},{"type":"Feature","properties":{"name":"Madhya Pradesh"},"geometry":{"type":"Polygon","coordinates":[[[76.48,21.19],[76.47,21.14],[76.38,21.07],[76.16,21.07],[76.15,21.25],[76.09,21.37],[75.38,21.38],[75.21,21.41],[75.10,21.46],[75.05,21.56],[74.86,21.63],[74.77,21.61],[74.58,21.66],[74.50,21.72],[74.52,21.91],[74.45,21.96],[74.43,22.03],[74.28,21.93],[74.14,21.95],[74.09,22.01],[74.12,22.21],[74.05,22.29],[74.06,22.35],[74.18,22.32],[74.21,22.44],[74.11,22.41],[74.05,22.54],[74.15,22.52],[74.26,22.64],[74.37,22.63],[74.40,22.73],[74.46,22.81],[74.46,22.90],[74.39,22.89],[74.31,23.05],[74.38,23.11],[74.50,23.08],[74.73,23.22],[74.52,23.32],[74.57,23.42],[74.77,23.54],[74.84,23.55],[74.92,23.66],[74.94,23.76],[74.90,23.87],[74.97,24.04],[74.87,24.17],[74.90,24.21],[74.86,24.24],[74.75,24.24],[74.78,24.33],[74.85,24.42],[74.81,24.46],[74.69,24.48],[74.78,24.58],[74.77,24.66],[74.80,24.73],[74.88,24.63],[74.99,24.69],[74.97,24.76],[74.86,24.79],[74.82,24.89],[74.90,24.92],[74.95,24.85],[75.03,24.84],[75.11,24.87],[75.11,24.96],[75.19,25.03],[75.35,25.01],[75.33,24.95],[75.18,24.74],[75.45,24.68],[75.54,24.70],[75.60,24.68],[75.78,24.76],[75.92,24.54],[75.90,24.44],[75.78,24.45],[75.72,24.39],[75.81,24.24],[75.75,24.14],[75.83,24.05],[75.70,23.96],[75.52,24.02],[75.46,23.91],[75.56,23.85],[75.58,23.79],[75.68,23.74],[75.79,23.86],[75.93,23.89],[76.04,24.06],[76.12,24.08],[76.11,24.19],[76.32,24.24],[76.57,24.20],[76.64,24.26],[76.67,24.19],[76.80,24.11],[76.88,24.13],[76.92,24.21],[76.83,24.35],[76.81,24.53],[76.86,24.54],[76.97,24.46],[77.06,24.55],[77.03,24.70],[76.94,24.75],[76.85,24.74],[76.80,24.80],[76.94,24.86],[76.86,24.96],[76.87,25.04],[77.00,25.07],[77.08,25.05],[77.17,25.11],[77.26,25.11],[77.31,25.08],[77.39,25.11],[77.41,25.22],[77.36,25.41],[77.31,25.43],[77.23,25.37],[77.22,25.31],[77.08,25.33],[76.94,25.28],[76.85,25.33],[76.76,25.32],[76.67,25.34],[76.51,25.52],[76.50,25.67],[76.54,25.83],[76.64,25.90],[76.71,25.90],[76.78,25.94],[76.90,26.09],[77.27,26.26],[77.43,26.40],[77.53,26.41],[77.74,26.53],[77.82,26.55],[77.90,26.65],[78.00,26.69],[78.08,26.67],[78.11,26.79],[78.35,26.86],[78.39,26.81],[78.54,26.76],[78.78,26.76],[78.87,26.69],[79.00,26.67],[78.98,26.57],[79.13,26.44],[79.13,26.33],[78.99,26.19],[79.01,26.08],[78.94,26.02],[78.93,25.95],[78.76,25.72],[78.81,25.61],[78.71,25.60],[78.65,25.55],[78.45,25.57],[78.39,25.44],[78.33,25.43],[78.34,25.32],[78.44,25.12],[78.33,25.08],[78.34,25.01],[78.17,24.87],[78.27,24.66],[78.26,24.44],[78.36,24.37],[78.32,24.32],[78.38,24.26],[78.50,24.39],[78.80,24.17],[78.97,24.34],[78.98,24.44],[78.91,24.45],[78.95,24.54],[78.88,24.64],[78.75,24.59],[78.78,24.70],[78.76,24.85],[78.67,24.89],[78.63,24.95],[78.63,25.07],[78.51,25.27],[78.65,25.38],[78.77,25.35],[78.73,25.45],[78.88,25.51],[78.94,25.49],[78.87,25.38],[78.96,25.34],[78.87,25.15],[78.93,25.20],[79.06,25.22],[79.13,25.10],[79.24,25.11],[79.32,25.14],[79.26,25.27],[79.28,25.32],[79.35,25.32],[79.43,25.25],[79.39,25.17],[79.40,25.10],[79.49,25.07],[79.56,25.17],[79.67,25.12],[79.74,25.13],[79.84,25.09],[79.85,25.19],[80.03,25.34],[80.22,25.39],[80.31,25.38],[80.31,25.28],[80.40,25.24],[80.43,25.17],[80.26,25.02],[80.34,25.01],[80.40,25.06],[80.47,24.97],[80.50,25.04],[80.59,25.09],[80.71,25.06],[80.72,25.11],[80.84,25.18],[80.87,25.06],[80.83,25.03],[80.86,24.92],[80.94,24.96],[81.12,24.90],[81.15,24.91],[81.26,25.05],[81.27,25.16],[81.39,25.13],[81.49,25.14],[81.54,25.18],[81.62,25.16],[81.66,25.06],[81.89,24.98],[81.94,24.84],[82.21,24.79],[82.29,24.60],[82.41,24.59],[82.41,24.65],[82.67,24.69],[82.70,24.63],[82.77,24.64],[82.79,24.57],[82.71,24.37],[82.77,24.37],[82.74,24.16],[82.66,24.12],[82.81,23.96],[82.69,23.91],[82.63,23.83],[82.49,23.78],[82.20,23.85],[82.08,23.81],[81.92,23.87],[81.80,23.80],[81.72,23.83],[81.66,23.92],[81.60,23.88],[81.69,23.72],[81.61,23.66],[81.61,23.51],[81.75,23.54],[81.82,23.51],[81.91,23.53],[81.98,23.41],[82.10,23.39],[82.19,23.31],[82.12,23.10],[81.94,23.07],[81.95,22.98],[81.86,22.88],[81.77,22.87],[81.79,22.76],[81.64,22.61],[81.62,22.53],[81.47,22.48],[81.32,22.52],[81.24,22.45],[81.19,22.49],[81.11,22.43],[81.11,22.29],[81.04,22.24],[81.00,22.05],[80.90,22.11],[80.81,21.76],[80.75,21.76],[80.71,21.66],[80.73,21.47],[80.66,21.33],[80.62,21.32],[80.42,21.44],[80.26,21.61],[80.12,21.61],[80.06,21.55],[79.91,21.52],[79.73,21.60],[79.53,21.54],[79.49,21.67],[79.23,21.71],[79.22,21.64],[78.91,21.59],[78.89,21.50],[78.58,21.48],[78.51,21.52],[78.43,21.49],[78.41,21.57],[78.34,21.58],[78.22,21.55],[78.02,21.42],[77.88,21.38],[77.80,21.40],[77.48,21.37],[77.45,21.55],[77.57,21.52],[77.54,21.70],[77.47,21.77],[77.28,21.75],[77.20,21.68],[77.06,21.71],[76.99,21.69],[76.90,21.59],[76.85,21.61],[76.78,21.55],[76.78,21.46],[76.62,21.33],[76.66,21.28],[76.62,21.18],[76.48,21.19]]]}},{"type":"Feature","properties":{"name":"Maharashtra"},"geometry":{"type":"Polygon","coordinates":[[[74.31,16.55],[74.31,16.32],[74.37,16.26],[74.48,16.24],[74.48,16.14],[74.37,16.07],[74.46,16.03],[74.34,15.76],[74.23,15.74],[74.20,15.78],[74.12,15.72],[74.11,15.65],[73.99,15.61],[73.93,15.74],[73.68,15.72],[73.58,15.90],[73.51,15.93],[73.36,16.36],[73.35,16.61],[73.27,16.89],[73.28,17.11],[73.22,17.26],[73.24,17.32],[73.18,17.38],[73.17,17.58],[72.97,18.12],[72.96,18.24],[73.02,18.26],[72.91,18.35],[72.89,18.46],[72.93,18.54],[72.85,18.69],[72.86,18.79],[72.80,18.90],[72.83,19.04],[72.78,19.12],[72.79,19.30],[72.65,19.83],[72.66,19.93],[72.73,19.97],[72.70,20.07],[72.87,20.22],[72.96,20.20],[72.96,20.12],[73.13,20.08],[73.24,20.12],[73.29,20.21],[73.41,20.20],[73.40,20.38],[73.46,20.49],[73.47,20.58],[73.40,20.62],[73.47,20.72],[73.61,20.62],[73.65,20.56],[73.74,20.56],[73.83,20.62],[73.87,20.72],[73.91,20.72],[73.94,20.83],[73.88,20.93],[73.66,21.15],[73.81,21.17],[73.82,21.27],[73.94,21.30],[73.95,21.39],[74.04,21.44],[74.32,21.49],[74.27,21.56],[74.16,21.56],[73.83,21.52],[73.81,21.64],[73.88,21.71],[73.82,21.76],[73.81,21.84],[74.14,21.95],[74.28,21.93],[74.43,22.03],[74.45,21.96],[74.52,21.91],[74.50,21.72],[74.58,21.66],[74.77,21.61],[74.86,21.63],[75.05,21.56],[75.10,21.46],[75.21,21.41],[75.38,21.38],[76.09,21.37],[76.15,21.25],[76.16,21.07],[76.38,21.07],[76.47,21.14],[76.48,21.19],[76.62,21.18],[76.66,21.28],[76.62,21.33],[76.78,21.46],[76.78,21.55],[76.85,21.61],[76.90,21.59],[76.99,21.69],[77.06,21.71],[77.20,21.68],[77.28,21.75],[77.47,21.77],[77.54,21.70],[77.57,21.52],[77.45,21.55],[77.48,21.37],[77.80,21.40],[77.88,21.38],[78.02,21.42],[78.22,21.55],[78.34,21.58],[78.41,21.57],[78.43,21.49],[78.51,21.52],[78.58,21.48],[78.89,21.50],[78.91,21.59],[79.22,21.64],[79.23,21.71],[79.49,21.67],[79.53,21.54],[79.73,21.60],[79.91,21.52],[80.06,21.55],[80.12,21.61],[80.26,21.61],[80.42,21.44],[80.62,21.32],[80.66,21.33],[80.61,21.22],[80.46,21.17],[80.43,21.09],[80.46,20.92],[80.54,20.93],[80.58,20.67],[80.52,20.57],[80.61,20.58],[80.59,20.39],[80.62,20.33],[80.39,20.24],[80.43,20.13],[80.50,20.14],[80.54,20.10],[80.52,19.93],[80.46,19.82],[80.54,19.81],[80.56,19.75],[80.67,19.70],[80.71,19.61],[80.89,19.51],[80.85,19.36],[80.75,19.28],[80.61,19.30],[80.57,19.39],[80.48,19.33],[80.39,19.18],[80.33,19.14],[80.27,18.94],[80.34,18.84],[80.27,18.76],[80.27,18.71],[80.11,18.67],[79.91,18.82],[79.96,18.86],[79.93,19.03],[79.85,19.10],[79.92,19.15],[79.97,19.39],[79.94,19.47],[79.80,19.57],[79.74,19.60],[79.47,19.50],[79.36,19.57],[79.25,19.59],[79.19,19.45],[79.09,19.53],[78.93,19.55],[78.95,19.65],[78.85,19.68],[78.84,19.76],[78.57,19.81],[78.43,19.81],[78.38,19.88],[78.30,19.91],[78.36,19.78],[78.34,19.71],[78.27,19.69],[78.30,19.48],[78.21,19.42],[78.17,19.23],[78.04,19.27],[77.94,19.34],[77.86,19.30],[77.85,19.18],[77.79,19.07],[77.84,18.90],[77.94,18.84],[77.83,18.80],[77.78,18.68],[77.72,18.66],[77.73,18.55],[77.59,18.54],[77.58,18.44],[77.52,18.37],[77.55,18.29],[77.46,18.26],[77.40,18.30],[77.41,18.39],[77.31,18.44],[77.26,18.42],[77.06,18.15],[76.95,18.18],[76.92,18.11],[76.95,18.04],[76.90,18.00],[76.91,17.91],[76.77,17.87],[76.74,17.89],[76.79,17.82],[76.71,17.78],[76.68,17.68],[76.52,17.76],[76.48,17.65],[76.33,17.59],[76.33,17.47],[76.37,17.43],[76.38,17.31],[76.22,17.36],[75.93,17.32],[75.89,17.40],[75.81,17.37],[75.63,17.47],[75.57,17.38],[75.60,17.30],[75.65,17.27],[75.62,17.17],[75.67,17.11],[75.66,16.97],[75.46,16.98],[75.28,16.95],[75.26,16.86],[75.18,16.84],[75.08,16.95],[74.90,16.86],[74.91,16.77],[74.69,16.71],[74.63,16.58],[74.57,16.55],[74.54,16.63],[74.31,16.55]]]}},{"type":"Feature","properties":{"name":"Manipur"},"geometry":{"type":"Polygon","coordinates":[[[93.50,23.94],[93.37,24.08],[93.25,24.02],[92.97,24.11],[93.02,24.23],[93.00,24.41],[93.04,24.54],[93.08,24.57],[93.10,24.81],[93.17,24.79],[93.38,25.24],[93.46,25.30],[93.50,25.24],[93.60,25.19],[93.80,25.46],[93.76,25.53],[94.00,25.56],[94.10,25.52],[94.19,25.54],[94.20,25.49],[94.41,25.53],[94.48,25.60],[94.55,25.57],[94.55,25.50],[94.67,25.44],[94.57,25.21],[94.65,25.11],[94.73,25.11],[94.74,25.03],[94.68,24.88],[94.63,24.83],[94.62,24.75],[94.54,24.71],[94.53,24.64],[94.37,24.49],[94.40,24.43],[94.29,24.23],[94.15,23.84],[94.01,23.92],[93.89,23.95],[93.80,23.92],[93.74,24.00],[93.62,24.01],[93.50,23.94]]]}},{"type":"Feature","properties":{"name":"Meghalaya"},"geometry":{"type":"Polygon","coordinates":[[[91.25,25.19],[91.08,25.20],[90.85,25.15],[90.77,25.18],[90.51,25.16],[90.44,25.14],[90.33,25.19],[90.11,25.22],[89.97,25.29],[89.83,25.29],[89.81,25.38],[89.87,25.47],[89.87,25.54],[90.01,25.60],[89.89,25.72],[90.12,25.95],[90.18,25.94],[90.43,25.99],[90.63,25.91],[90.71,25.95],[90.94,25.94],[91.02,25.88],[91.00,25.82],[91.14,25.85],[91.22,25.72],[91.33,25.84],[91.44,25.83],[91.57,26.03],[91.72,25.96],[91.72,26.03],[91.82,26.11],[91.86,26.04],[92.27,26.06],[92.16,25.97],[92.20,25.90],[92.15,25.81],[92.15,25.67],[92.22,25.71],[92.44,25.72],[92.58,25.55],[92.66,25.57],[92.56,25.46],[92.65,25.43],[92.79,25.28],[92.62,25.11],[92.48,25.10],[92.42,25.02],[92.08,25.18],[91.74,25.17],[91.64,25.12],[91.60,25.17],[91.49,25.13],[91.37,25.17],[91.35,25.23],[91.25,25.19]]]}},{"type":"Feature","properties":{"name":"Mizoram"},"geometry":{"type":"Polygon","coordinates":[[[92.59,22.01],[92.50,22.74],[92.44,22.87],[92.37,22.93],[92.39,23.05],[92.34,23.23],[92.40,23.26],[92.27,23.64],[92.25,23.81],[92.32,23.91],[92.33,24.18],[92.29,24.24],[92.42,24.25],[92.43,24.15],[92.53,24.17],[92.55,24.24],[92.61,24.25],[92.62,24.33],[92.68,24.35],[92.76,24.51],[92.79,24.41],[92.89,24.39],[93.00,24.41],[93.02,24.23],[92.97,24.11],[93.20,24.04],[93.39,23.92],[93.42,23.52],[93.39,23.49],[93.40,23.38],[93.35,23.33],[93.39,23.22],[93.35,23.07],[93.30,23.00],[93.19,23.05],[93.12,23.00],[93.14,22.92],[93.09,22.70],[93.14,22.58],[93.13,22.47],[93.18,22.42],[93.19,22.27],[93.16,22.18],[93.05,22.20],[92.99,22.05],[92.93,22.01],[92.70,22.15],[92.68,22.03],[92.59,22.01]]]}},{"type":"Feature","properties":{"name":"Nagaland"},"geometry":{"type":"Polygon","coordinates":[[[93.32,25.54],[93.51,25.67],[93.54,25.73],[93.70,25.85],[93.68,25.90],[93.77,25.96],[93.77,25.84],[93.88,25.84],[93.97,25.91],[93.95,25.96],[94.00,26.17],[94.10,26.31],[94.16,26.35],[94.18,26.45],[94.28,26.56],[94.31,26.46],[94.40,26.53],[94.40,26.61],[94.58,26.72],[94.73,26.74],[94.92,26.94],[94.98,26.91],[95.19,27.03],[95.22,26.92],[95.20,26.84],[95.23,26.68],[95.06,26.45],[95.12,26.34],[95.11,26.10],[95.18,26.07],[95.01,25.89],[95.04,25.74],[94.93,25.66],[94.80,25.49],[94.67,25.44],[94.55,25.50],[94.55,25.57],[94.48,25.60],[94.41,25.53],[94.32,25.50],[94.20,25.49],[94.19,25.54],[94.10,25.52],[94.00,25.56],[93.76,25.53],[93.80,25.46],[93.60,25.19],[93.50,25.24],[93.45,25.43],[93.32,25.54]]]}},{"type":"Feature","properties":{"name":"Odisha"},"geometry":{"type":"Polygon","coordinates":[[[82.35,18.17],[82.31,18.04],[82.25,17.99],[82.16,18.05],[82.03,18.06],[81.97,18.01],[81.80,17.95],[81.61,17.82],[81.39,17.81],[81.39,17.89],[81.48,17.97],[81.52,18.24],[81.65,18.34],[81.75,18.35],[81.76,18.41],[81.91,18.57],[81.89,18.66],[82.09,18.73],[82.15,18.78],[82.17,18.90],[82.24,18.91],[82.16,19.20],[82.18,19.42],[82.12,19.42],[82.10,19.51],[82.02,19.50],[82.06,19.79],[81.98,19.80],[81.96,19.85],[81.86,19.90],[81.84,19.95],[81.87,20.05],[81.94,20.10],[82.01,20.04],[82.06,20.05],[82.18,19.98],[82.26,19.97],[82.34,19.83],[82.44,19.91],[82.53,19.87],[82.59,19.77],[82.69,19.83],[82.71,19.98],[82.39,20.05],[82.38,20.14],[82.42,20.20],[82.39,20.34],[82.43,20.43],[82.33,20.56],[82.37,20.63],[82.33,20.87],[82.45,20.82],[82.48,20.90],[82.56,20.94],[82.63,21.08],[82.64,21.15],[82.96,21.17],[83.07,21.11],[83.19,21.13],[83.26,21.37],[83.39,21.34],[83.39,21.40],[83.33,21.50],[83.38,21.62],[83.48,21.64],[83.46,21.69],[83.59,21.82],[83.53,22.04],[83.62,22.20],[83.86,22.34],[84.01,22.37],[84.04,22.46],[84.01,22.52],[84.11,22.47],[84.19,22.37],[84.29,22.34],[84.42,22.35],[84.53,22.42],[84.75,22.41],[84.80,22.45],[84.95,22.44],[85.06,22.49],[85.07,22.25],[85.02,22.12],[85.18,22.07],[85.23,22.00],[85.27,22.08],[85.39,22.16],[85.68,22.05],[85.74,22.07],[85.78,21.98],[85.89,21.98],[86.00,22.11],[86.03,22.18],[85.97,22.24],[86.02,22.33],[86.01,22.42],[85.96,22.48],[86.06,22.55],[86.11,22.48],[86.28,22.44],[86.35,22.34],[86.42,22.31],[86.49,22.34],[86.72,22.21],[86.83,22.09],[86.96,22.08],[87.02,22.03],[87.00,21.91],[87.10,21.86],[87.10,21.92],[87.24,21.96],[87.24,21.85],[87.28,21.80],[87.44,21.76],[87.48,21.61],[87.40,21.54],[87.14,21.50],[86.94,21.35],[86.85,21.21],[86.85,21.09],[86.97,20.86],[86.96,20.79],[86.86,20.78],[86.80,20.73],[86.86,20.77],[87.02,20.77],[87.05,20.71],[86.78,20.53],[86.73,20.46],[86.77,20.33],[86.53,20.18],[86.36,19.98],[86.22,19.90],[85.67,19.74],[85.35,19.58],[84.98,19.31],[84.76,19.07],[84.70,19.11],[84.62,19.08],[84.59,19.02],[84.51,19.04],[84.31,18.78],[84.22,18.79],[84.08,18.75],[84.03,18.81],[83.89,18.81],[83.79,19.01],[83.74,18.99],[83.75,18.91],[83.66,19.09],[83.48,19.03],[83.45,18.95],[83.34,19.01],[83.31,18.97],[83.41,18.87],[83.20,18.75],[83.13,18.78],[82.99,18.60],[83.04,18.54],[83.01,18.45],[83.07,18.40],[82.96,18.36],[82.80,18.45],[82.77,18.34],[82.58,18.27],[82.60,18.36],[82.48,18.52],[82.36,18.42],[82.38,18.36],[82.31,18.18],[82.35,18.17]]]}},{"type":"Feature","properties":{"name":"Puducherry"},"geometry":{"type":"MultiPolygon","coordinates":[[[[79.72,10.92],[79.74,10.99],[79.85,10.98],[79.84,10.82],[79.81,10.87],[79.72,10.92]]],[[[75.54,11.73],[75.55,11.72],[75.53,11.71],[75.54,11.73]]],[[[79.78,11.96],[79.84,11.95],[79.80,11.84],[79.68,11.88],[79.78,11.96]]],[[[82.18,16.73],[82.27,16.72],[82.26,16.69],[82.19,16.72],[82.18,16.73]]]]}},{"type":"Feature","properties":{"name":"Punjab"},"geometry":{"type":"Polygon","coordinates":[[[75.46,29.80],[75.34,29.69],[75.30,29.55],[75.16,29.66],[75.24,29.75],[75.19,29.84],[75.11,29.83],[74.99,29.86],[74.92,29.95],[74.81,29.99],[74.70,29.97],[74.64,29.91],[73.89,29.97],[73.90,30.05],[73.97,30.11],[73.96,30.27],[73.87,30.35],[73.96,30.42],[73.96,30.48],[74.21,30.69],[74.36,30.89],[74.59,31.03],[74.70,31.07],[74.68,31.12],[74.51,31.13],[74.55,31.36],[74.65,31.45],[74.50,31.74],[74.55,31.75],[74.57,31.83],[74.66,31.92],[74.80,31.96],[74.91,32.04],[75.17,32.06],[75.37,32.18],[75.38,32.26],[75.34,32.34],[75.51,32.30],[75.59,32.37],[75.68,32.39],[75.72,32.45],[75.83,32.51],[75.93,32.39],[75.87,32.39],[75.77,32.28],[75.63,32.25],[75.66,32.13],[75.59,32.08],[75.91,31.95],[76.01,31.63],[76.12,31.49],[76.20,31.30],[76.28,31.30],[76.39,31.41],[76.49,31.26],[76.58,31.27],[76.64,31.20],[76.62,30.99],[76.84,30.83],[76.83,30.75],[76.70,30.76],[76.73,30.69],[76.82,30.68],[76.92,30.61],[76.91,30.42],[76.74,30.42],[76.71,30.32],[76.56,30.24],[76.64,30.14],[76.57,30.10],[76.46,30.09],[76.41,30.14],[76.25,30.08],[76.17,29.92],[76.21,29.84],[76.09,29.81],[76.04,29.74],[75.94,29.72],[75.77,29.82],[75.57,29.73],[75.46,29.80]]]}},{"type":"Feature","properties":{"name":"Rajasthan"},"geometry":{"type":"Polygon","coordinates":[[[74.50,23.08],[74.38,23.11],[74.31,23.05],[74.24,23.18],[74.12,23.17],[74.13,23.26],[73.98,23.33],[73.95,23.38],[73.89,23.33],[73.83,23.42],[73.75,23.45],[73.62,23.44],[73.65,23.62],[73.57,23.65],[73.52,23.60],[73.36,23.81],[73.37,23.90],[73.41,23.92],[73.40,24.04],[73.31,24.05],[73.24,24.00],[73.21,24.07],[73.06,24.19],[73.15,24.35],[73.07,24.39],[73.08,24.49],[73.00,24.48],[72.95,24.36],[72.72,24.36],[72.68,24.46],[72.51,24.50],[72.50,24.41],[72.35,24.56],[72.33,24.63],[72.16,24.62],[72.05,24.71],[71.65,24.63],[71.60,24.67],[71.47,24.67],[71.28,24.61],[71.11,24.67],[70.93,24.93],[70.88,25.14],[70.66,25.39],[70.67,25.67],[70.60,25.71],[70.38,25.67],[70.26,25.71],[70.09,25.93],[70.08,26.08],[70.17,26.25],[70.17,26.55],[70.05,26.59],[69.79,26.59],[69.51,26.74],[69.48,26.80],[69.51,27.00],[69.58,27.18],[70.02,27.56],[70.13,27.80],[70.37,28.01],[70.50,28.03],[70.58,28.01],[70.67,27.92],[70.68,27.82],[70.75,27.72],[70.90,27.70],[71.20,27.83],[71.38,27.87],[71.66,27.87],[71.87,27.95],[71.88,27.91],[71.92,28.12],[72.20,28.39],[72.29,28.66],[72.40,28.78],[72.94,29.02],[73.28,29.57],[73.39,29.94],[73.80,30.06],[73.96,30.19],[73.97,30.11],[73.90,30.05],[73.89,29.97],[74.52,29.94],[74.56,29.86],[74.48,29.81],[74.48,29.74],[74.61,29.75],[74.57,29.56],[74.62,29.53],[74.58,29.45],[74.60,29.36],[74.78,29.36],[74.85,29.40],[74.93,29.36],[74.96,29.28],[75.05,29.28],[75.08,29.22],[75.34,29.28],[75.40,29.26],[75.39,29.06],[75.44,29.05],[75.52,28.97],[75.47,28.92],[75.56,28.61],[75.62,28.60],[75.67,28.51],[75.89,28.38],[76.05,28.22],[75.99,28.12],[75.97,27.93],[75.93,27.92],[75.97,27.85],[76.17,27.79],[76.22,27.83],[76.16,27.90],[76.15,27.99],[76.26,28.06],[76.31,28.01],[76.35,28.12],[76.31,28.17],[76.54,28.03],[76.53,27.97],[76.66,28.01],[76.68,28.08],[76.79,28.14],[76.85,28.22],[76.96,28.13],[76.93,27.99],[76.94,27.84],[76.89,27.73],[76.97,27.65],[77.04,27.82],[77.28,27.79],[77.35,27.65],[77.33,27.52],[77.64,27.24],[77.65,27.17],[77.55,27.11],[77.66,26.97],[77.39,26.83],[77.45,26.74],[77.52,26.81],[77.72,26.87],[77.76,26.93],[77.98,26.88],[78.11,26.89],[78.14,26.94],[78.27,26.92],[78.22,26.83],[78.11,26.79],[78.08,26.67],[78.00,26.69],[77.90,26.65],[77.82,26.55],[77.74,26.53],[77.53,26.41],[77.43,26.40],[77.27,26.26],[76.90,26.09],[76.78,25.94],[76.71,25.90],[76.64,25.90],[76.54,25.83],[76.50,25.67],[76.51,25.52],[76.67,25.34],[76.76,25.32],[76.85,25.33],[76.94,25.28],[77.08,25.33],[77.22,25.31],[77.23,25.37],[77.31,25.43],[77.36,25.41],[77.41,25.22],[77.39,25.11],[77.31,25.08],[77.26,25.11],[77.17,25.11],[77.08,25.05],[77.00,25.07],[76.87,25.04],[76.86,24.96],[76.94,24.86],[76.80,24.80],[76.85,24.74],[76.94,24.75],[77.03,24.70],[77.06,24.55],[76.97,24.46],[76.86,24.54],[76.81,24.53],[76.83,24.35],[76.92,24.21],[76.88,24.13],[76.80,24.11],[76.67,24.19],[76.64,24.26],[76.57,24.20],[76.32,24.24],[76.11,24.19],[76.12,24.08],[76.04,24.06],[75.93,23.89],[75.79,23.86],[75.68,23.74],[75.58,23.79],[75.56,23.85],[75.46,23.91],[75.52,24.02],[75.70,23.96],[75.83,24.05],[75.75,24.14],[75.81,24.24],[75.72,24.39],[75.78,24.45],[75.90,24.44],[75.92,24.54],[75.78,24.76],[75.60,24.68],[75.54,24.70],[75.45,24.68],[75.18,24.74],[75.33,24.95],[75.35,25.01],[75.19,25.03],[75.11,24.96],[75.11,24.87],[75.03,24.84],[74.95,24.85],[74.90,24.92],[74.82,24.89],[74.86,24.79],[74.97,24.76],[74.99,24.69],[74.88,24.63],[74.80,24.73],[74.77,24.66],[74.78,24.58],[74.69,24.48],[74.81,24.46],[74.85,24.42],[74.78,24.33],[74.75,24.24],[74.86,24.24],[74.90,24.21],[74.87,24.17],[74.97,24.04],[74.90,23.87],[74.94,23.76],[74.92,23.66],[74.84,23.55],[74.77,23.54],[74.57,23.42],[74.52,23.32],[74.73,23.22],[74.50,23.08]]]}},{"type":"Feature","properties":{"name":"Sikkim"},"geometry":{"type":"Polygon","coordinates":[[[88.91,27.32],[88.90,27.27],[88.80,27.24],[88.79,27.18],[88.72,27.13],[88.59,27.18],[88.53,27.17],[88.42,27.07],[88.28,27.13],[88.15,27.10],[88.09,27.13],[88.03,27.21],[88.04,27.47],[88.19,27.78],[88.20,27.94],[88.46,28.01],[88.61,28.09],[88.75,28.07],[88.84,27.99],[88.83,27.92],[88.88,27.85],[88.85,27.81],[88.84,27.66],[88.76,27.56],[88.79,27.41],[88.91,27.32]]]}},{"type":"Feature","properties":{"name":"Tamil Nadu"},"geometry":{"type":"Polygon","coordinates":[[[77.26,8.50],[77.26,8.57],[77.17,8.74],[77.25,8.87],[77.14,9.00],[77.26,9.15],[77.28,9.29],[77.40,9.52],[77.31,9.60],[77.26,9.57],[77.16,9.61],[77.24,9.79],[77.21,9.87],[77.28,10.23],[77.18,10.35],[76.98,10.21],[76.89,10.25],[76.81,10.42],[76.83,10.59],[76.90,10.78],[76.83,10.87],[76.65,10.93],[76.75,11.07],[76.69,11.16],[76.70,11.23],[76.62,11.19],[76.44,11.20],[76.52,11.27],[76.54,11.35],[76.23,11.52],[76.37,11.60],[76.41,11.67],[76.51,11.70],[76.56,11.62],[76.84,11.59],[76.83,11.65],[76.90,11.79],[77.01,11.81],[77.11,11.77],[77.29,11.80],[77.42,11.76],[77.49,11.94],[77.67,11.95],[77.77,12.11],[77.74,12.15],[77.61,12.20],[77.50,12.19],[77.47,12.24],[77.61,12.36],[77.63,12.48],[77.58,12.51],[77.60,12.66],[77.73,12.67],[77.83,12.86],[77.92,12.89],[77.97,12.83],[78.05,12.85],[78.13,12.78],[78.23,12.76],[78.30,12.66],[78.41,12.62],[78.59,12.78],[78.62,12.99],[78.89,13.09],[79.16,13.02],[79.23,13.10],[79.22,13.15],[79.28,13.12],[79.43,13.18],[79.40,13.33],[79.53,13.33],[79.53,13.27],[79.68,13.29],[79.70,13.22],[79.79,13.24],[79.80,13.31],[79.94,13.36],[80.03,13.53],[80.07,13.48],[80.21,13.49],[80.26,13.56],[80.32,13.44],[80.34,13.27],[80.25,12.77],[80.13,12.41],[79.85,12.04],[79.84,11.95],[79.78,11.96],[79.68,11.88],[79.80,11.84],[79.76,11.62],[79.85,11.17],[79.85,10.98],[79.74,10.99],[79.72,10.92],[79.81,10.87],[79.84,10.82],[79.86,10.28],[79.38,10.31],[79.26,10.22],[79.22,10.13],[79.25,10.05],[78.98,9.68],[78.89,9.46],[79.06,9.29],[79.33,9.31],[79.30,9.24],[79.20,9.27],[78.87,9.25],[78.57,9.13],[78.38,9.09],[78.22,8.97],[78.17,8.88],[78.16,8.80],[78.19,8.75],[78.13,8.68],[78.14,8.50],[78.05,8.37],[77.84,8.25],[77.79,8.16],[77.58,8.13],[77.55,8.07],[77.23,8.18],[77.09,8.29],[77.26,8.50]]]}},{"type":"Feature","properties":{"name":"Telangana"},"geometry":{"type":"Polygon","coordinates":[[[77.28,16.40],[77.24,16.47],[77.41,16.51],[77.45,16.61],[77.42,16.72],[77.47,16.78],[77.45,16.88],[77.49,17.04],[77.46,17.11],[77.36,17.15],[77.37,17.22],[77.51,17.43],[77.68,17.51],[77.44,17.58],[77.45,17.69],[77.65,17.96],[77.54,18.05],[77.59,18.09],[77.56,18.19],[77.60,18.27],[77.55,18.29],[77.52,18.37],[77.58,18.44],[77.59,18.54],[77.73,18.55],[77.72,18.66],[77.78,18.68],[77.83,18.80],[77.94,18.84],[77.84,18.90],[77.79,19.07],[77.85,19.18],[77.86,19.30],[77.94,19.34],[78.04,19.27],[78.17,19.23],[78.21,19.42],[78.30,19.48],[78.27,19.69],[78.34,19.71],[78.36,19.78],[78.30,19.91],[78.38,19.88],[78.43,19.81],[78.57,19.81],[78.84,19.76],[78.85,19.68],[78.95,19.65],[78.93,19.55],[79.09,19.53],[79.19,19.45],[79.25,19.59],[79.36,19.57],[79.47,19.50],[79.74,19.60],[79.94,19.47],[79.97,19.39],[79.92,19.15],[79.85,19.10],[79.93,19.03],[79.96,18.86],[79.91,18.82],[80.11,18.67],[80.27,18.71],[80.37,18.61],[80.45,18.63],[80.63,18.52],[80.70,18.43],[80.75,18.16],[80.85,18.20],[80.86,18.13],[80.97,18.16],[80.97,18.04],[81.01,17.79],[81.08,17.79],[81.05,17.73],[80.97,17.77],[80.88,17.73],[80.91,17.63],[81.02,17.51],[81.30,17.40],[81.27,17.31],[81.19,17.32],[81.17,17.23],[80.99,17.19],[80.94,17.21],[80.87,17.16],[80.87,17.07],[80.84,17.03],[80.58,17.15],[80.36,16.97],[80.53,16.96],[80.60,16.91],[80.56,16.76],[80.32,16.87],[80.30,16.97],[80.18,17.02],[80.05,16.97],[80.05,16.74],[79.94,16.63],[79.79,16.72],[79.44,16.61],[79.41,16.58],[79.25,16.56],[79.21,16.51],[79.21,16.22],[79.15,16.20],[79.02,16.24],[78.90,16.18],[78.92,16.12],[78.74,16.00],[78.60,16.08],[78.55,16.04],[78.41,16.07],[78.25,16.00],[78.17,15.85],[78.08,15.84],[77.88,15.90],[77.80,15.87],[77.65,15.88],[77.51,15.92],[77.50,16.22],[77.59,16.34],[77.28,16.40]]]}},{"type":"Feature","properties":{"name":"Tripura"},"geometry":{"type":"Polygon","coordinates":[[[91.75,23.26],[91.81,23.14],[91.80,23.06],[91.72,22.98],[91.57,22.96],[91.54,22.99],[91.50,23.18],[91.45,23.26],[91.31,23.27],[91.25,23.48],[91.16,23.59],[91.15,23.74],[91.22,23.73],[91.24,23.82],[91.21,23.87],[91.29,23.99],[91.63,24.10],[91.65,24.18],[91.75,24.14],[91.74,24.24],[91.92,24.10],[91.92,24.33],[91.97,24.38],[92.07,24.37],[92.13,24.42],[92.15,24.52],[92.21,24.50],[92.26,24.35],[92.21,24.28],[92.29,24.24],[92.33,24.18],[92.32,23.91],[92.25,23.81],[92.26,23.72],[92.17,23.70],[92.11,23.73],[92.05,23.64],[91.93,23.68],[91.97,23.48],[91.94,23.42],[91.86,23.44],[91.80,23.51],[91.83,23.37],[91.75,23.26]]]}},{"type":"Feature","properties":{"name":"Uttar Pradesh"},"geometry":{"type":"Polygon","coordinates":[[[78.75,24.59],[78.88,24.64],[78.95,24.54],[78.91,24.45],[78.99,24.41],[78.97,24.34],[78.80,24.17],[78.50,24.39],[78.38,24.26],[78.32,24.32],[78.36,24.37],[78.26,24.44],[78.27,24.66],[78.17,24.87],[78.34,25.01],[78.33,25.08],[78.44,25.12],[78.34,25.32],[78.33,25.43],[78.39,25.44],[78.45,25.57],[78.65,25.55],[78.71,25.60],[78.81,25.61],[78.76,25.72],[78.93,25.95],[78.94,26.02],[79.01,26.08],[78.99,26.19],[79.13,26.33],[79.13,26.44],[78.98,26.57],[79.00,26.67],[78.87,26.69],[78.78,26.76],[78.54,26.76],[78.39,26.81],[78.35,26.86],[78.22,26.83],[78.27,26.92],[78.14,26.94],[78.11,26.89],[77.98,26.88],[77.76,26.93],[77.72,26.87],[77.52,26.81],[77.45,26.74],[77.39,26.83],[77.66,26.97],[77.55,27.11],[77.65,27.17],[77.64,27.24],[77.33,27.52],[77.35,27.65],[77.28,27.79],[77.52,27.92],[77.54,27.98],[77.47,28.08],[77.50,28.37],[77.29,28.56],[77.34,28.60],[77.29,28.70],[77.20,28.79],[77.23,28.91],[77.16,29.03],[77.14,29.16],[77.15,29.29],[77.10,29.63],[77.15,29.68],[77.11,29.75],[77.17,29.80],[77.22,29.93],[77.58,30.30],[77.57,30.40],[77.65,30.40],[77.72,30.32],[77.95,30.24],[77.85,30.11],[77.80,30.09],[77.71,29.88],[77.82,29.67],[77.92,29.71],[78.02,29.58],[78.20,29.73],[78.33,29.79],[78.51,29.72],[78.53,29.63],[78.61,29.55],[78.80,29.46],[78.92,29.43],[78.76,29.26],[78.87,29.20],[78.92,29.11],[79.03,29.16],[79.15,29.11],[79.14,29.06],[79.25,28.99],[79.40,28.95],[79.42,28.89],[79.58,28.84],[79.82,28.88],[79.95,28.72],[80.02,28.74],[80.06,28.83],[80.11,28.82],[80.27,28.71],[80.31,28.62],[80.45,28.62],[80.55,28.69],[80.66,28.64],[80.71,28.56],[81.21,28.35],[81.23,28.28],[81.32,28.19],[81.42,28.17],[81.47,28.08],[81.88,27.85],[81.96,27.92],[82.06,27.92],[82.12,27.86],[82.20,27.84],[82.44,27.67],[82.66,27.72],[82.70,27.70],[82.75,27.58],[82.73,27.48],[82.92,27.50],[83.03,27.44],[83.18,27.45],[83.29,27.33],[83.34,27.33],[83.40,27.41],[83.39,27.47],[83.61,27.46],[83.83,27.36],[83.99,27.17],[83.96,27.08],[84.04,27.04],[84.06,26.88],[84.25,26.80],[84.32,26.68],[84.41,26.63],[84.28,26.59],[84.11,26.63],[84.05,26.55],[83.91,26.50],[83.90,26.44],[84.15,26.37],[84.17,26.26],[84.08,26.21],[84.05,26.09],[84.29,25.94],[84.35,25.95],[84.62,25.79],[84.60,25.73],[84.55,25.68],[84.33,25.74],[84.31,25.66],[84.20,25.66],[84.14,25.73],[84.07,25.69],[84.08,25.63],[83.93,25.55],[83.84,25.43],[83.53,25.30],[83.34,25.18],[83.39,24.78],[83.48,24.73],[83.53,24.64],[83.52,24.55],[83.40,24.49],[83.38,24.31],[83.40,24.26],[83.32,24.10],[83.20,23.92],[83.09,23.87],[82.94,23.87],[82.81,23.96],[82.66,24.12],[82.74,24.16],[82.77,24.37],[82.71,24.37],[82.79,24.57],[82.77,24.64],[82.70,24.63],[82.67,24.69],[82.41,24.65],[82.41,24.59],[82.29,24.60],[82.21,24.79],[81.94,24.84],[81.89,24.98],[81.66,25.06],[81.62,25.16],[81.54,25.18],[81.49,25.14],[81.39,25.13],[81.27,25.16],[81.26,25.05],[81.15,24.91],[81.12,24.90],[80.94,24.96],[80.86,24.92],[80.83,25.03],[80.87,25.06],[80.84,25.18],[80.72,25.11],[80.71,25.06],[80.59,25.09],[80.50,25.04],[80.47,24.97],[80.40,25.06],[80.34,25.01],[80.26,25.02],[80.43,25.17],[80.40,25.24],[80.31,25.28],[80.31,25.38],[80.22,25.39],[80.03,25.34],[79.85,25.19],[79.84,25.09],[79.74,25.13],[79.67,25.12],[79.56,25.17],[79.49,25.07],[79.40,25.10],[79.39,25.17],[79.43,25.25],[79.35,25.32],[79.28,25.32],[79.26,25.27],[79.32,25.14],[79.13,25.10],[79.06,25.22],[78.93,25.20],[78.87,25.15],[78.96,25.34],[78.87,25.38],[78.94,25.49],[78.88,25.51],[78.73,25.45],[78.77,25.35],[78.65,25.38],[78.51,25.27],[78.63,25.07],[78.63,24.95],[78.67,24.89],[78.76,24.85],[78.78,24.70],[78.75,24.59]]]}},{"type":"Feature","properties":{"name":"Uttarakhand"},"geometry":{"type":"Polygon","coordinates":[[[78.53,29.63],[78.51,29.72],[78.33,29.79],[78.20,29.73],[78.02,29.58],[77.92,29.71],[77.82,29.67],[77.71,29.88],[77.80,30.09],[77.85,30.11],[77.95,30.24],[77.72,30.32],[77.65,30.40],[77.57,30.40],[77.81,30.50],[77.81,30.56],[77.70,30.76],[77.80,30.85],[77.86,31.10],[77.96,31.17],[78.24,31.23],[78.31,31.28],[78.37,31.28],[78.48,31.19],[78.60,31.22],[78.67,31.19],[78.80,31.19],[78.88,31.09],[79.00,31.11],[78.88,31.28],[79.07,31.45],[79.13,31.43],[79.16,31.36],[79.23,31.33],[79.22,31.26],[79.29,31.21],[79.31,31.13],[79.50,31.03],[79.60,30.93],[79.73,30.97],[79.86,30.97],[79.88,30.91],[80.05,30.84],[80.10,30.78],[80.17,30.80],[80.24,30.74],[80.21,30.58],[80.41,30.52],[80.54,30.44],[80.60,30.47],[80.80,30.32],[80.99,30.26],[81.04,30.21],[80.92,30.17],[80.67,29.95],[80.60,29.95],[80.55,29.84],[80.43,29.80],[80.36,29.73],[80.40,29.59],[80.24,29.44],[80.31,29.30],[80.25,29.18],[80.14,29.10],[80.02,28.74],[79.95,28.72],[79.82,28.88],[79.58,28.84],[79.42,28.89],[79.40,28.95],[79.25,28.99],[79.14,29.06],[79.15,29.11],[79.03,29.16],[78.92,29.11],[78.87,29.20],[78.76,29.26],[78.92,29.43],[78.80,29.46],[78.61,29.55],[78.53,29.63]]]}},{"type":"Feature","properties":{"name":"West Bengal"},"geometry":{"type":"MultiPolygon","coordinates":[[[[89.09,21.65],[89.03,21.61],[89.01,21.77],[89.09,21.65]]],[[[88.10,21.84],[88.16,21.82],[88.17,21.73],[88.12,21.67],[88.03,21.68],[88.10,21.84]]],[[[88.74,21.66],[88.69,21.75],[88.71,21.90],[88.77,21.86],[88.80,21.66],[88.74,21.66]]],[[[88.94,21.91],[88.94,21.76],[88.82,21.92],[88.88,21.91],[88.94,21.91]]],[[[87.78,21.69],[87.48,21.61],[87.44,21.76],[87.28,21.80],[87.24,21.85],[87.24,21.96],[87.10,21.92],[87.10,21.86],[87.00,21.91],[87.02,22.03],[86.96,22.08],[86.83,22.09],[86.72,22.21],[86.83,22.32],[86.84,22.40],[86.76,22.42],[86.80,22.48],[86.76,22.57],[86.65,22.57],[86.64,22.65],[86.41,22.79],[86.43,22.92],[86.50,22.99],[86.24,22.99],[86.04,23.14],[85.88,23.16],[85.81,23.26],[85.88,23.35],[85.85,23.42],[85.88,23.48],[86.03,23.49],[86.08,23.56],[86.15,23.55],[86.17,23.46],[86.31,23.41],[86.36,23.53],[86.48,23.63],[86.80,23.69],[86.82,23.76],[86.80,23.83],[86.91,23.88],[87.08,23.81],[87.12,23.85],[87.23,23.85],[87.29,23.90],[87.23,24.02],[87.33,24.03],[87.44,23.98],[87.63,24.16],[87.63,24.25],[87.70,24.26],[87.80,24.38],[87.79,24.58],[87.88,24.56],[87.90,24.72],[87.83,24.74],[87.96,24.92],[87.95,24.97],[87.79,25.08],[87.77,25.24],[87.71,25.25],[87.76,25.26],[87.81,25.24],[87.84,25.29],[87.78,25.34],[87.76,25.41],[87.86,25.49],[87.96,25.53],[88.06,25.48],[88.02,25.59],[88.05,25.70],[87.96,25.72],[87.89,25.86],[87.82,25.89],[87.82,25.93],[87.85,26.03],[88.27,26.33],[88.23,26.45],[88.10,26.54],[88.18,26.77],[88.12,26.95],[87.99,27.10],[88.03,27.21],[88.09,27.13],[88.15,27.10],[88.28,27.13],[88.42,27.07],[88.53,27.17],[88.59,27.18],[88.86,27.10],[88.86,26.96],[88.92,26.99],[89.08,26.88],[89.12,26.80],[89.25,26.80],[89.37,26.85],[89.45,26.79],[89.54,26.81],[89.76,26.69],[89.85,26.69],[89.87,26.61],[89.84,26.38],[89.78,26.35],[89.70,26.21],[89.72,26.17],[89.63,26.22],[89.60,26.15],[89.64,26.06],[89.54,26.00],[89.34,26.01],[89.22,26.12],[89.15,26.13],[89.09,26.39],[88.98,26.44],[88.90,26.37],[88.98,26.34],[88.92,26.28],[88.75,26.32],[88.42,26.56],[88.40,26.64],[88.33,26.49],[88.48,26.46],[88.51,26.36],[88.40,26.33],[88.35,26.22],[88.17,26.14],[88.09,25.93],[88.10,25.83],[88.14,25.79],[88.26,25.78],[88.45,25.66],[88.44,25.59],[88.64,25.47],[88.81,25.52],[88.83,25.36],[88.98,25.27],[88.90,25.17],[88.43,25.20],[88.45,25.07],[88.39,24.96],[88.27,24.88],[88.22,24.95],[88.14,24.91],[88.17,24.86],[88.06,24.77],[88.02,24.69],[88.13,24.51],[88.33,24.44],[88.55,24.30],[88.68,24.32],[88.74,24.25],[88.74,24.14],[88.70,24.09],[88.74,24.03],[88.73,23.91],[88.60,23.86],[88.56,23.71],[88.59,23.61],[88.76,23.44],[88.70,23.23],[88.81,23.25],[88.94,23.20],[88.85,22.96],[88.96,22.84],[88.91,22.75],[88.96,22.69],[88.92,22.65],[88.99,22.42],[88.99,22.28],[89.06,22.20],[89.06,21.94],[89.00,21.90],[88.93,21.94],[88.85,21.92],[88.76,21.95],[88.76,22.01],[88.63,21.95],[88.53,21.85],[88.44,21.91],[88.39,21.89],[88.35,21.80],[88.26,21.72],[88.30,21.67],[88.25,21.55],[88.14,21.95],[88.20,22.02],[88.21,22.10],[88.18,22.18],[88.08,22.26],[87.99,22.24],[88.01,22.20],[88.13,22.18],[88.18,22.10],[88.06,22.01],[87.95,21.83],[87.78,21.69]]]]}}]}